[{"OBJECT_NAME":"CHECKMATE 4","OBJECT_ID":"2023-050C","EPOCH":"2026-03-09T17:33:56.570400","MEAN_MOTION":13.84801132,"ECCENTRICITY":0.00051188,"INCLINATION":81.0045,"RA_OF_ASC_NODE":167.2035,"ARG_OF_PERICENTER":230.7826,"MEAN_ANOMALY":129.2876,"EPHEMERIS_TYPE":0,"CLASSIFICATION_TYPE":"U","NORAD_CAT_ID":56164,"ELEMENT_SET_NO":999,"REV_AT_EPOCH":14837,"BSTAR":9.4449728e-5,"MEAN_MOTION_DOT":1.17e-6,"MEAN_MOTION_DDOT":0},{"OBJECT_NAME":"COSMOS 970 DEB","OBJECT_ID":"1977-121DV","EPOCH":"2026-03-06T11:19:30.974592","MEAN_MOTION":13.86286587,"ECCENTRICITY":0.01119608,"INCLINATION":65.8195,"RA_OF_ASC_NODE":333.6165,"ARG_OF_PERICENTER":134.7212,"MEAN_ANOMALY":41.7751,"EPHEMERIS_TYPE":0,"CLASSIFICATION_TYPE":"U","NORAD_CAT_ID":65008,"ELEMENT_SET_NO":999,"REV_AT_EPOCH":62034,"BSTAR":0.00081389756,"MEAN_MOTION_DOT":9.07e-6,"MEAN_MOTION_DDOT":0}]
